STARLINK-30432          
1 57864U 23144A   26067.99821101 -.00003111  00000+0 -10630-3 0  9996
2 57864  43.0054 288.9399 0003209 261.3656  98.6832 15.26740678137495
BANDWAGON-4 OBJECT Q    
1 66307U 25248Q   26067.98911828  .00022547  00000+0  92242-3 0  9991
2 66307  45.4076 295.4821 0011280 209.4727 150.5526 15.23978167 19300
